NORAD_CAT_ID,OBJECT_NAME,OBJECT_TYPE,EPOCH,MEAN_MOTION,ECCENTRICITY,INCLINATION,RA_OF_ASC_NODE,ARG_OF_PERICENTER,MEAN_ANOMALY,BSTAR,MEAN_MOTION_DOT,MEAN_MOTION_DDOT,TLE_LINE0,TLE_LINE1,TLE_LINE2,SEMIMAJOR_AXIS,PERIOD,APOGEE,PERIGEE,DECAYED
51747.0,STARLINK-3446,PAYLOAD,2022-11-30 14:03:10,15.08846421,0.0002927,53.2159,284.1628,32.1968,327.9202,0.00015971,2.255e-05,0.0,0 STARLINK-3446,1 51747U 22016AK  22334.58553768  .00002255  00000-0  15971-3 0  9996,2 51747  53.2159 284.1628 0002927  32.1968 327.9202 15.08846421 44272,6917.861,95.437,541.751,537.701,0.0
51747.0,STARLINK-3446,PAYLOAD,2022-11-30 20:24:42,15.08851711,0.0002996,53.2158,282.9731,33.6561,326.4621,9.8046e-06,-1.33e-06,0.0,0 STARLINK-3446,1 51747U 22016AK  22334.85049361 -.00000133  00000-0  98046-5 0  9995,2 51747  53.2158 282.9731 0002996  33.6561 326.4621 15.08851711 43189,6917.845,95.437,541.7819999999998,537.637,0.0
51747.0,STARLINK-3446,PAYLOAD,2022-12-01 05:57:02,15.08842601,0.0002932,53.2155,281.1888,34.429,325.6891,0.00015143,2.123e-05,0.0,0 STARLINK-3446,1 51747U 22016AK  22335.24794050  .00002123  00000-0  15143-3 0  9996,2 51747  53.2155 281.1888 0002932  34.4290 325.6891 15.08842601 43243,6917.871999999999,95.437,541.766,537.7090000000002,0.0
51747.0,STARLINK-3446,PAYLOAD,2022-12-01 20:15:30,15.08843783,0.000304,53.2158,278.513,32.4668,327.6511,0.00014,1.941e-05,0.0,0 STARLINK-3446,1 51747U 22016AK  22335.84409971  .00001941  00000-0  14000-3 0  9995,2 51747  53.2158 278.5130 0003040  32.4668 327.6511 15.08843783 44462,6917.869000000002,95.437,541.837,537.631,0.0
51747.0,STARLINK-3446,PAYLOAD,2022-12-02 05:47:48,15.08848816,0.0002864,53.2156,276.7288,34.3097,325.808,0.00018832,2.711e-05,0.0,0 STARLINK-3446,1 51747U 22016AK  22336.24153589  .00002711  00000-0  18832-3 0  9994,2 51747  53.2156 276.7288 0002864  34.3097 325.8080 15.08848816 43398,6917.853,95.437,541.7,537.737,0.0
51747.0,STARLINK-3446,PAYLOAD,2022-12-02 20:06:16,15.08845093,0.0002918999999999,53.216,274.0524,33.5033,326.6143,0.00019838,2.871e-05,0.0,0 STARLINK-3446,1 51747U 22016AK  22336.83769627  .00002871  00000-0  19838-3 0  9999,2 51747  53.2160 274.0524 0002919  33.5033 326.6143 15.08845093 43482,6917.865,95.437,541.749,537.71,0.0
51747.0,STARLINK-3446,PAYLOAD,2022-12-03 04:03:13,15.08829272,0.0002924,53.216,272.5646,29.6452,330.4705,0.00015076,2.111e-05,0.0,0 STARLINK-3446,1 51747U 22016AK  22337.16890434  .00002111  00000-0  15076-3 0  9994,2 51747  53.2160 272.5646 0002924  29.6452 330.4705 15.08829272 44666,6917.913000000001,95.438,541.8009999999998,537.755,0.0
51747.0,STARLINK-3446,PAYLOAD,2022-12-03 07:13:59,15.08827489,0.0002885,53.2169,271.9703,28.3732,331.7417,9.6645e-05,1.249e-05,0.0,0 STARLINK-3446,1 51747U 22016AK  22337.30138644  .00001249  00000-0  96645-4 0  9991,2 51747  53.2169 271.9703 0002885  28.3732 331.7417 15.08827489 43554,6917.919,95.438,541.779,537.788,0.0
51747.0,STARLINK-3446,PAYLOAD,2022-12-03 19:57:04,15.08843374,0.0002928,53.2168,269.5913,33.1121,327.0054,2.0953e-05,4.5e-07,0.0,0 STARLINK-3446,1 51747U 22016AK  22337.83129728  .00000045  00000-0  20953-4 0  9994,2 51747  53.2168 269.5913 0002928  33.1121 327.0054 15.08843374 44763,6917.87,95.437,541.761,537.71,0.0
51747.0,STARLINK-3446,PAYLOAD,2022-12-04 02:18:37,15.08834653,0.0002928,53.2165,268.403,31.8633,328.2536,-3.337e-05,-8.2e-06,0.0,0 STARLINK-3446,1 51747U 22016AK  22338.09626364 -.00000820  00000-0 -33370-4 0  9991,2 51747  53.2165 268.4030 0002928  31.8633 328.2536 15.08834653 44804,6917.897,95.438,541.7869999999998,537.736,0.0
51747.0,STARLINK-3446,PAYLOAD,2022-12-04 05:29:23,15.08835507,0.0002945,53.2164,267.8081,32.0135,328.1036,-3.152e-05,-7.9e-06,0.0,0 STARLINK-3446,1 51747U 22016AK  22338.22874325 -.00000790  00000-0 -31520-4 0  9999,2 51747  53.2164 267.8081 0002945  32.0135 328.1036 15.08835507 43690,6917.894,95.438,541.7959999999998,537.722,0.0
51747.0,STARLINK-3446,PAYLOAD,2022-12-04 19:47:51,15.0884531,0.0002966,53.2161,265.1316,29.3627,330.7532,-5.6959e-05,-1.195e-05,0.0,0 STARLINK-3446,1 51747U 22016AK  22338.82489805 -.00001195  00000-0 -56959-4 0  9993,2 51747  53.2161 265.1316 0002966  29.3627 330.7532 15.08845310 43780,6917.864000000001,95.437,541.781,537.677,0.0
51747.0,STARLINK-3446,PAYLOAD,2022-12-05 03:44:47,15.08834753,0.000302,53.2163,263.6451,31.029,329.088,5.6638e-05,6.13e-06,0.0,0 STARLINK-3446,1 51747U 22016AK  22339.15610284  .00000613  00000-0  56638-4 0  9993,2 51747  53.2163 263.6451 0003020  31.0290 329.0880 15.08834753 44960,6917.896,95.438,541.851,537.672,0.0
51747.0,STARLINK-3446,PAYLOAD,2022-12-05 11:41:42,15.08840771,0.0002996,53.2167,262.158,33.7639,326.3543,0.00014975,2.096e-05,0.0,0 STARLINK-3446,1 51747U 22016AK  22339.48729730  .00002096  00000-0  14975-3 0  9990,2 51747  53.2167 262.1580 0002996  33.7639 326.3543 15.08840771 45018,6917.878000000002,95.438,541.816,537.67,0.0
51747.0,STARLINK-3446,PAYLOAD,2022-12-06 11:32:29,15.08841258,0.0002986,53.2173,257.6974,33.6364,326.4817,8.3026e-05,1.033e-05,0.0,0 STARLINK-3446,1 51747U 22016AK  22340.48089815  .00001033  00000-0  83026-4 0  9999,2 51747  53.2173 257.6974 0002986  33.6364 326.4817 15.08841258 44031,6917.877,95.437,541.807,537.6759999999998,0.0
51747.0,STARLINK-3446,PAYLOAD,2022-12-07 05:01:45,15.08826481,0.0003084,53.2169,254.4254,35.4974,324.6223,-1.8845e-05,-5.88e-06,0.0,0 STARLINK-3446,1 51747U 22016AK  22341.20955493 -.00000588  00000-0 -18845-4 0  9997,2 51747  53.2169 254.4254 0003084  35.4974 324.6223 15.08826481 45278,6917.922,95.438,541.92,537.653,0.0
51747.0,STARLINK-3446,PAYLOAD,2022-12-07 11:23:17,15.08838352,0.0002935,53.2166,253.2372,33.0385,327.079,1.0042e-05,-1.29e-06,0.0,0 STARLINK-3446,1 51747U 22016AK  22341.47450692 -.00000129  00000-0  10042-4 0  9998,2 51747  53.2166 253.2372 0002935  33.0385 327.0790 15.08838352 45318,6917.885,95.438,541.781,537.72,0.0
51747.0,STARLINK-3446,PAYLOAD,2022-12-08 11:14:03,15.08853174,0.0002816,53.2163,248.7764,29.5472,330.5679,9.7381e-05,1.262e-05,0.0,0 STARLINK-3446,1 51747U 22016AK  22342.46809516  .00001262  00000-0  97381-4 0  9990,2 51747  53.2163 248.7764 0002816  29.5472 330.5679 15.08853174 44339,6917.84,95.437,541.653,537.757,0.0
51747.0,STARLINK-3446,PAYLOAD,2022-12-08 23:57:08,15.0884311,0.0002845,53.216,246.3977,30.0079,330.1075,0.00024017,3.536e-05,0.0,0 STARLINK-3446,1 51747U 22016AK  22342.99801714  .00003536  00000-0  24017-3 0  9991,2 51747  53.2160 246.3977 0002845  30.0079 330.1075 15.08843110 45547,6917.871,95.437,541.7040000000002,537.768,0.0
51747.0,STARLINK-3446,PAYLOAD,2022-12-09 03:07:54,15.08848271,0.0002871,53.2163,245.8015,31.6803,328.4362,0.00023666,3.481e-05,0.0,0 STARLINK-3446,1 51747U 22016AK  22343.13049437  .00003481  00000-0  23666-3 0  9992,2 51747  53.2163 245.8015 0002871  31.6803 328.4362 15.08848271 44437,6917.855,95.437,541.706,537.734,0.0
51747.0,STARLINK-3446,PAYLOAD,2022-12-09 23:47:55,15.08835028,0.0002309,53.217,241.9377,350.9888,9.1063,0.0002208,3.227e-05,0.0,0 STARLINK-3446,1 51747U 22016AK  22343.99161590  .00003227  00000-0  22080-3 0  9998,2 51747  53.2170 241.9377 0002309 350.9888   9.1063 15.08835028 45695,6917.896,95.438,541.3580000000002,538.163,0.0
51747.0,STARLINK-3446,PAYLOAD,2022-12-11 02:49:29,15.08842906,0.000305,53.2167,236.8804,27.45,332.6653,-0.00010557,-1.969e-05,0.0,0 STARLINK-3446,1 51747U 22016AK  22345.11770330 -.00001969  00000-0 -10557-3 0  9991,2 51747  53.2167 236.8804 0003050  27.4500 332.6653 15.08842906 45861,6917.871999999999,95.437,541.846,537.627,0.0
51747.0,STARLINK-3446,PAYLOAD,2022-12-11 12:21:48,15.08844911,0.0002753,53.2163,235.0969,28.5447,331.5695,-0.00015049,-2.683e-05,0.0,0 STARLINK-3446,1 51747U 22016AK  22345.51514154 -.00002683  00000-0 -15049-3 0  9990,2 51747  53.2163 235.0969 0002753  28.5447 331.5695 15.08844911 44794,6917.865,95.437,541.635,537.826,0.0
51747.0,STARLINK-3446,PAYLOAD,2022-12-11 20:18:43,15.08838389,0.0002762,53.2153,233.6098,27.4595,332.6542,0.00011492,1.541e-05,0.0,0 STARLINK-3446,1 51747U 22016AK  22345.84633894  .00001541  00000-0  11492-3 0  9997,2 51747  53.2153 233.6098 0002762  27.4595 332.6542 15.08838389 44843,6917.885,95.438,541.661,537.84,0.0
51747.0,STARLINK-3446,PAYLOAD,2022-12-12 01:04:53,15.08829099,0.0002927,53.2162,232.7174,25.6934,334.4203,3.7387e-05,3.06e-06,0.0,0 STARLINK-3446,1 51747U 22016AK  22346.04506804  .00000306  00000-0  37387-4 0  9990,2 51747  53.2162 232.7174 0002927  25.6934 334.4203 15.08829099 46000,6917.9140000000025,95.438,541.804,537.754,0.0
51747.0,STARLINK-3446,PAYLOAD,2022-12-13 02:31:04,15.08831271,0.0002829,53.2159,227.9603,28.0161,332.0982,4.0075e-05,3.49e-06,0.0,0 STARLINK-3446,1 51747U 22016AK  22347.10491147  .00000349  00000-0  40075-4 0  9996,2 51747  53.2159 227.9603 0002829  28.0161 332.0982 15.08831271 46169,6917.906999999997,95.438,541.729,537.815,0.0
51747.0,STARLINK-3446,PAYLOAD,2022-12-13 08:52:37,15.08826975,0.0002898999999999,53.2159,226.7701,27.6779,332.4367,5.4812e-06,-2.01e-06,0.0,0 STARLINK-3446,1 51747U 22016AK  22347.36987711 -.00000201  00000-0  54812-5 0  9994,2 51747  53.2159 226.7701 0002899  27.6779 332.4367 15.08826975 45077,6917.92,95.438,541.7909999999998,537.78,0.0
51747.0,STARLINK-3446,PAYLOAD,2022-12-14 08:43:23,15.0883956,0.0002976,53.2158,222.31,27.7272,332.3878,0.00012398,1.685e-05,0.0,0 STARLINK-3446,1 51747U 22016AK  22348.36347052  .00001685  00000-0  12398-3 0  9990,2 51747  53.2158 222.3100 0002976  27.7272 332.3878 15.08839560 46358,6917.882,95.438,541.805,537.688,0.0
51747.0,STARLINK-3446,PAYLOAD,2022-12-15 00:37:15,15.08831332,0.0003032,53.2157,219.3358,29.5525,330.5638,9.6686e-05,1.25e-05,0.0,0 STARLINK-3446,1 51747U 22016AK  22349.02587924  .00001250  00000-0  96686-4 0  9999,2 51747  53.2157 219.3358 0003032  29.5525 330.5638 15.08831332 46457,6917.906999999997,95.438,541.869,537.674,0.0
